[{"OBJECT_NAME":"GAOFEN-9 03","OBJECT_ID":"2020-039A","EPOCH":"2026-03-09T21:55:15.121344","MEAN_MOTION":15.30529116,"ECCENTRICITY":0.0013094,"INCLINATION":97.5219,"RA_OF_ASC_NODE":201.2158,"ARG_OF_PERICENTER":77.4533,"MEAN_ANOMALY":282.8172,"EPHEMERIS_TYPE":0,"CLASSIFICATION_TYPE":"U","NORAD_CAT_ID":45794,"ELEMENT_SET_NO":999,"REV_AT_EPOCH":31856,"BSTAR":0.00039258132,"MEAN_MOTION_DOT":0.00011544,"MEAN_MOTION_DDOT":0},{"OBJECT_NAME":"STARLINK-32676","OBJECT_ID":"2024-249T","EPOCH":"2026-03-09T09:35:54.633696","MEAN_MOTION":15.27568767,"ECCENTRICITY":3.742e-5,"INCLINATION":43.0006,"RA_OF_ASC_NODE":316.1997,"ARG_OF_PERICENTER":22.4031,"MEAN_ANOMALY":337.6837,"EPHEMERIS_TYPE":0,"CLASSIFICATION_TYPE":"U","NORAD_CAT_ID":62426,"ELEMENT_SET_NO":999,"REV_AT_EPOCH":6776,"BSTAR":0.00081741529,"MEAN_MOTION_DOT":0.00022292,"MEAN_MOTION_DDOT":0}]
